[{"OBJECT_NAME":"STARLINK-35710","OBJECT_ID":"2025-244G","EPOCH":"2026-03-09T17:48:10.274112","MEAN_MOTION":15.30193102,"ECCENTRICITY":8.457e-5,"INCLINATION":53.1572,"RA_OF_ASC_NODE":229.9441,"ARG_OF_PERICENTER":84.6395,"MEAN_ANOMALY":275.4702,"EPHEMERIS_TYPE":0,"CLASSIFICATION_TYPE":"U","NORAD_CAT_ID":66212,"ELEMENT_SET_NO":999,"REV_AT_EPOCH":2166,"BSTAR":0.001076495,"MEAN_MOTION_DOT":0.00031653,"MEAN_MOTION_DDOT":0},{"OBJECT_NAME":"KUIPER-00252","OBJECT_ID":"2025-301AA","EPOCH":"2026-03-09T22:00:01.999584","MEAN_MOTION":15.32961042,"ECCENTRICITY":0.00108625,"INCLINATION":51.8682,"RA_OF_ASC_NODE":64.6463,"ARG_OF_PERICENTER":55.9089,"MEAN_ANOMALY":330.8749,"EPHEMERIS_TYPE":0,"CLASSIFICATION_TYPE":"U","NORAD_CAT_ID":67157,"ELEMENT_SET_NO":999,"REV_AT_EPOCH":542,"BSTAR":-0.017504489,"MEAN_MOTION_DOT":-0.00529484,"MEAN_MOTION_DDOT":0}]
